{"type": "FeatureCollection", "features": [ {"type": "Feature", "properties": {"norad_id": 43437, "name": "SENTINEL-3B", "group": "resource", "lat": 23.391033023191536, "lon": 54.77542920096263, "alt_km": 801.7351525279046, "timestamp": "2025-12-19T10:50:00.849369+00:00", "meta": {"OBJECT_NAME": "SENTINEL-3B", "OBJECT_ID": "2018-039A", "EPOCH": "2025-12-18T19:34:29.618976", "MEAN_MOTION": 14.26736281, "ECCENTRICITY": 0.0001618, "INCLINATION": 98.6261, "RA_OF_ASC_NODE": 57.9137, "ARG_OF_PERICENTER": 95.564, "MEAN_ANOMALY": 264.5725, "EPHEMERIS_TYPE": 0, "CLASSIFICATION_TYPE": "U", "NORAD_CAT_ID": 43437, "ELEMENT_SET_NO": 999, "REV_AT_EPOCH": 39840, "BSTAR": 6.5108738e-05, "MEAN_MOTION_DOT": 1.14e-06, "MEAN_MOTION_DDOT": 0}, "tle": {"line1": "1 43437U 18039A   25352.81562059  .00000114  00000+0  65109-4 0  9995", "line2": "2 43437  98.6261  57.9137 0001618  95.5640 264.5725 14.26736281398407"}}, "geometry": {"type": "Point", "coordinates": [54.77542920096263, 23.391033023191536]}}, {"type": "Feature", "properties": {"norad_id": 43461, "name": "GAOFEN-5 01", "group": "resource", "lat": 72.44482382081239, "lon": 164.5024022900559, "alt_km": 685.2475159655269, "timestamp": "2025-12-19T10:50:00.849379+00:00", "meta": {"OBJECT_NAME": "GAOFEN-5 01", "OBJECT_ID": "2018-043A", "EPOCH": "2025-12-18T21:11:52.396512", "MEAN_MOTION": 14.60416266, "ECCENTRICITY": 5.996e-05, "INCLINATION": 98.4332, "RA_OF_ASC_NODE": 315.9579, "ARG_OF_PERICENTER": 306.2833, "MEAN_ANOMALY": 53.8311, "EPHEMERIS_TYPE": 0, "CLASSIFICATION_TYPE": "U", "NORAD_CAT_ID": 43461, "ELEMENT_SET_NO": 999, "REV_AT_EPOCH": 40537, "BSTAR": 8.1639853e-05, "MEAN_MOTION_DOT": 3.47e-06, "MEAN_MOTION_DDOT": 0}, "tle": {"line1": "1 43461U 18043A   25352.88324533  .00000347  00000+0  81640-4 0  9993", "line2": "2 43461  98.4332 315.9579 0000599 306.2833  53.8311 14.60416266405372"}}, "geometry": {"type": "Point", "coordinates": [164.5024022900559, 72.44482382081239]}}, {"type": "Feature", "properties": {"norad_id": 43484, "name": "GAOFEN-6", "group": "resource", "lat": 48.75132154043693, "lon": -113.51030358269854, "alt_km": 635.2679973574695, "timestamp": "2025-12-19T10:50:00.849389+00:00", "meta": {"OBJECT_NAME": "GAOFEN-6", "OBJECT_ID": "2018-048A", "EPOCH": "2025-12-18T22:51:39.016224", "MEAN_MOTION": 14.76577528, "ECCENTRICITY": 0.00129389, "INCLINATION": 97.8031, "RA_OF_ASC_NODE": 57.0111, "ARG_OF_PERICENTER": 45.266, "MEAN_ANOMALY": 314.9601, "EPHEMERIS_TYPE": 0, "CLASSIFICATION_TYPE": "U", "NORAD_CAT_ID": 43484, "ELEMENT_SET_NO": 999, "REV_AT_EPOCH": 40679, "BSTAR": 0.00012369559, "MEAN_MOTION_DOT": 8.15e-06, "MEAN_MOTION_DDOT": 0}, "tle": {"line1": "1 43484U 18048A   25352.95253491  .00000815  00000+0  12370-3 0  9998", "line2": "2 43484  97.8031  57.0111 0012938  45.2660 314.9601 14.76577528406796"}}, "geometry": {"type": "Point", "coordinates": [-113.51030358269854, 48.75132154043693]}}, {"type": "Feature", "properties": {"norad_id": 43585, "name": "GAOFEN-11 01", "group": "resource", "lat": -70.37461729456298, "lon": -144.30236832619042, "alt_km": 423.4136704301809, "timestamp": "2025-12-19T10:50:00.849399+00:00", "meta": {"OBJECT_NAME": "GAOFEN-11 01", "OBJECT_ID": "2018-063A", "EPOCH": "2025-12-18T22:54:00.952416", "MEAN_MOTION": 15.49387827, "ECCENTRICITY": 0.00039893, "INCLINATION": 97.1566, "RA_OF_ASC_NODE": 55.8368, "ARG_OF_PERICENTER": 281.6841, "MEAN_ANOMALY": 78.3963, "EPHEMERIS_TYPE": 0, "CLASSIFICATION_TYPE": "U", "NORAD_CAT_ID": 43585, "ELEMENT_SET_NO": 999, "REV_AT_EPOCH": 41238, "BSTAR": 0.00017797366, "MEAN_MOTION_DOT": 9.673e-05, "MEAN_MOTION_DDOT": 0}, "tle": {"line1": "1 43585U 18063A   25352.95417769  .00009673  00000+0  17797-3 0  9996", "line2": "2 43585  97.1566  55.8368 0003989 281.6841  78.3963 15.49387827412383"}}, "geometry": {"type": "Point", "coordinates": [-144.30236832619042, -70.37461729456298]}}, {"type": "Feature", "properties": {"norad_id": 43613, "name": "ICESAT-2", "group": "resource", "lat": -18.764051479291187, "lon": 61.866423243734246, "alt_km": 485.51595403863394, "timestamp": "2025-12-19T10:50:00.849409+00:00", "meta": {"OBJECT_NAME": "ICESAT-2", "OBJECT_ID": "2018-070A", "EPOCH": "2025-12-18T21:23:43.897056", "MEAN_MOTION": 15.28302033, "ECCENTRICITY": 0.00029087, "INCLINATION": 92.0051, "RA_OF_ASC_NODE": 242.3973, "ARG_OF_PERICENTER": 128.7002, "MEAN_ANOMALY": 231.4508, "EPHEMERIS_TYPE": 0, "CLASSIFICATION_TYPE": "U", "NORAD_CAT_ID": 43613, "ELEMENT_SET_NO": 999, "REV_AT_EPOCH": 40492, "BSTAR": 0.00035915988, "MEAN_MOTION_DOT": 9.9e-05, "MEAN_MOTION_DDOT": 0}, "tle": {"line1": "1 43613U 18070A   25352.89148029  .00009900  00000+0  35916-3 0  9995", "line2": "2 43613  92.0051 242.3973 0002908 128.7002 231.4508 15.28302033404924"}}, "geometry": {"type": "Point", "coordinates": [61.866423243734246, -18.764051479291187]}}, {"type": "Feature", "properties": {"norad_id": 43719, "name": "HYSIS", "group": "resource", "lat": -35.78293234877126, "lon": -129.42834042591926, "alt_km": 640.6389220161909, "timestamp": "2025-12-19T10:50:00.849419+00:00", "meta": {"OBJECT_NAME": "HYSIS", "OBJECT_ID": "2018-096A", "EPOCH": "2025-12-18T22:29:26.920032", "MEAN_MOTION": 14.78660948, "ECCENTRICITY": 0.00011223, "INCLINATION": 98.0097, "RA_OF_ASC_NODE": 55.8849, "ARG_OF_PERICENTER": 50.4304, "MEAN_ANOMALY": 309.7006, "EPHEMERIS_TYPE": 0, "CLASSIFICATION_TYPE": "U", "NORAD_CAT_ID": 43719, "ELEMENT_SET_NO": 999, "REV_AT_EPOCH": 38078, "BSTAR": 0.0001298207, "MEAN_MOTION_DOT": 8.99e-06, "MEAN_MOTION_DDOT": 0}, "tle": {"line1": "1 43719U 18096A   25352.93711713  .00000899  00000+0  12982-3 0  9997", "line2": "2 43719  98.0097  55.8849 0001122  50.4304 309.7006 14.78660948380784"}}, "geometry": {"type": "Point", "coordinates": [-129.42834042591926, -35.78293234877126]}}, {"type": "Feature", "properties": {"norad_id": 43783, "name": "KAZSTSAT", "group": "resource", "lat": -50.928725330673316, "lon": -160.93237517032432, "alt_km": 574.3945035371726, "timestamp": "2025-12-19T10:50:00.849430+00:00", "meta": {"OBJECT_NAME": "KAZSTSAT", "OBJECT_ID": "2018-099AB", "EPOCH": "2025-12-18T14:35:01.050720", "MEAN_MOTION": 14.99363181, "ECCENTRICITY": 0.00059313, "INCLINATION": 97.4537, "RA_OF_ASC_NODE": 27.5404, "ARG_OF_PERICENTER": 304.033, "MEAN_ANOMALY": 56.033, "EPHEMERIS_TYPE": 0, "CLASSIFICATION_TYPE": "U", "NORAD_CAT_ID": 43783, "ELEMENT_SET_NO": 999, "REV_AT_EPOCH": 38424, "BSTAR": 3.4281152e-05, "MEAN_MOTION_DOT": 3.64e-06, "MEAN_MOTION_DDOT": 0}, "tle": {"line1": "1 43783U 18099AB  25352.60765105  .00000364  00000+0  34281-4 0  9993", "line2": "2 43783  97.4537  27.5404 0005931 304.0330  56.0330 14.99363181384248"}}, "geometry": {"type": "Point", "coordinates": [-160.93237517032432, -50.928725330673316]}}, {"type": "Feature", "properties": {"norad_id": 43831, "name": "SAUDISAT 5A", "group": "resource", "lat": -19.672244395771177, "lon": -129.126185284383, "alt_km": 500.24349641042045, "timestamp": "2025-12-19T10:50:00.849440+00:00", "meta": {"OBJECT_NAME": "SAUDISAT 5A", "OBJECT_ID": "2018-102A", "EPOCH": "2025-12-18T22:56:36.626208", "MEAN_MOTION": 15.25731299, "ECCENTRICITY": 0.00114869, "INCLINATION": 97.335, "RA_OF_ASC_NODE": 53.0274, "ARG_OF_PERICENTER": 57.07, "MEAN_ANOMALY": 303.1642, "EPHEMERIS_TYPE": 0, "CLASSIFICATION_TYPE": "U", "NORAD_CAT_ID": 43831, "ELEMENT_SET_NO": 999, "REV_AT_EPOCH": 38817, "BSTAR": 0.00019484559, "MEAN_MOTION_DOT": 4.906e-05, "MEAN_MOTION_DDOT": 0}, "tle": {"line1": "1 43831U 18102A   25352.95597947  .00004906  00000+0  19485-3 0  9991", "line2": "2 43831  97.3350  53.0274 0011486  57.0700 303.1642 15.25731299388178"}}, "geometry": {"type": "Point", "coordinates": [-129.126185284383, -19.672244395771177]}}, {"type": "Feature", "properties": {"norad_id": 43833, "name": "SAUDISAT 5B", "group": "resource", "lat": -77.86651238111438, "lon": -160.6016619174533, "alt_km": 502.6263596107474, "timestamp": "2025-12-19T10:50:00.849449+00:00", "meta": {"OBJECT_NAME": "SAUDISAT 5B", "OBJECT_ID": "2018-102C", "EPOCH": "2025-12-18T22:40:51.267648", "MEAN_MOTION": 15.26080551, "ECCENTRICITY": 0.00122287, "INCLINATION": 97.3445, "RA_OF_ASC_NODE": 55.7664, "ARG_OF_PERICENTER": 59.3191, "MEAN_ANOMALY": 300.9251, "EPHEMERIS_TYPE": 0, "CLASSIFICATION_TYPE": "U", "NORAD_CAT_ID": 43833, "ELEMENT_SET_NO": 999, "REV_AT_EPOCH": 38828, "BSTAR": 0.00019120607, "MEAN_MOTION_DOT": 4.865e-05, "MEAN_MOTION_DDOT": 0}, "tle": {"line1": "1 43833U 18102C   25352.94503782  .00004865  00000+0  19121-3 0  9997", "line2": "2 43833  97.3445  55.7664 0012228  59.3191 300.9251 15.26080551388283"}}, "geometry": {"type": "Point", "coordinates": [-160.6016619174533, -77.86651238111438]}}, {"type": "Feature", "properties": {"norad_id": 44622, "name": "GAOFEN-10R", "group": "resource", "lat": -59.6215395428996, "lon": 107.05115337302844, "alt_km": 631.7059270312639, "timestamp": "2025-12-19T10:50:00.849460+00:00", "meta": {"OBJECT_NAME": "GAOFEN-10R", "OBJECT_ID": "2019-066A", "EPOCH": "2025-12-19T00:02:05.043264", "MEAN_MOTION": 14.82812693, "ECCENTRICITY": 0.0007466, "INCLINATION": 98.0286, "RA_OF_ASC_NODE": 300.5322, "ARG_OF_PERICENTER": 23.8659, "MEAN_ANOMALY": 336.2898, "EPHEMERIS_TYPE": 0, "CLASSIFICATION_TYPE": "U", "NORAD_CAT_ID": 44622, "ELEMENT_SET_NO": 999, "REV_AT_EPOCH": 33567, "BSTAR": 0.00015792342, "MEAN_MOTION_DOT": 1.223e-05, "MEAN_MOTION_DDOT": 0}, "tle": {"line1": "1 44622U 19066A   25353.00144726  .00001223  00000+0  15792-3 0  9996", "line2": "2 44622  98.0286 300.5322 0007466  23.8659 336.2898 14.82812693335671"}}, "geometry": {"type": "Point", "coordinates": [107.05115337302844, -59.6215395428996]}}]}